STARLINK-36636          
1 67611U 26018Y   26052.91668981 -.00051365  00000+0 -34546-3 0  9997
2 67611  97.2850 118.0210 0001250  87.8248 139.1819 15.75197692  4820
STARLINK-36407          
1 67612U 26018Z   26052.91668981  .00202692  00000+0  13316-2 0  9998
2 67612  97.2845 118.0026 0001307  88.5755  80.4410 15.75124119  4913
STARLINK-36597          
1 67613U 26018AA  26052.74582650  .00330607  00000+0  16638-2 0  9996
2 67613  97.2849 117.8527 0002181  55.8725 304.2750 15.80794518  4800
NEONSAT-1A              
1 67614U 26019A   26052.91767241  .00002761  00000+0  18487-3 0  9990
2 67614  97.4100 177.0614 0012409 223.6108 136.4140 15.07648316  3442
ELECTRON KICK STAGE R/B 
1 67616U 26019C   26052.33608873  .00508639  80473-4  20504-2 0  9997
2 67616  97.4030 178.2923 0157990 181.5976 178.4804 15.69685010  3478
STARLINK-36548          
1 67617U 26020A   26052.90505042  .00177519  00000+0  10698-2 0  9992
2 67617  42.9988 238.2165 0001928 251.0899 108.9762 15.76379596  3598
STARLINK-36601          
1 67618U 26020B   26052.86216320 -.00818576  00000+0 -46341-2 0  9997
2 67618  42.9983 237.8661 0002208 294.3499  65.7141 15.80243838  3593
STARLINK-36119          
1 67619U 26020C   26052.39598347  .00407066  00000+0  23651-2 0  9993
2 67619  42.9982 241.2781 0001867 260.5068  99.5591 15.76552663  3512
STARLINK-36607          
1 67620U 26020D   26052.91668981  .00181700  00000+0  10999-2 0  9990
2 67620  42.9996 237.6815 0001449 259.9532 352.8530 15.76265220  4856
STARLINK-36615          
1 67621U 26020E   26052.86069013  .00013340  00000+0  65939-4 0  9996
2 67621  42.9976 237.8555 0002207 232.7365 127.3306 15.81965520  3596
STARLINK-36614          
1 67622U 26020F   26052.89848821  .00287771  00000+0  17060-2 0  9993
2 67622  42.9993 238.1617 0001583 282.9634  77.1058 15.76430058  3594
STARLINK-36600          
1 67623U 26020G   26052.90067865  .00379536  00000+0  22214-2 0  9995
2 67623  42.9980 238.1795 0001302 301.3177  58.7565 15.76462580  3598
